[{"OBJECT_NAME":"STARLINK-37104","OBJECT_ID":"2026-053AA","EPOCH":"2026-04-16T06:00:02.000160","MEAN_MOTION":15.49232511,"ECCENTRICITY":0.0002121,"INCLINATION":97.2847,"RA_OF_ASC_NODE":342.2853,"ARG_OF_PERICENTER":96.2889,"MEAN_ANOMALY":356.6858,"EPHEMERIS_TYPE":0,"CLASSIFICATION_TYPE":"U","NORAD_CAT_ID":68231,"ELEMENT_SET_NO":999,"REV_AT_EPOCH":605,"BSTAR":-0.0015776828,"MEAN_MOTION_DOT":-0.00085112,"MEAN_MOTION_DDOT":0},{"OBJECT_NAME":"STARLINK-37027","OBJECT_ID":"2026-054A","EPOCH":"2026-04-16T05:52:31.480320","MEAN_MOTION":15.75411249,"ECCENTRICITY":0.00011116,"INCLINATION":53.1589,"RA_OF_ASC_NODE":125.2051,"ARG_OF_PERICENTER":359.2014,"MEAN_ANOMALY":0.9005,"EPHEMERIS_TYPE":0,"CLASSIFICATION_TYPE":"U","NORAD_CAT_ID":68232,"ELEMENT_SET_NO":999,"REV_AT_EPOCH":470,"BSTAR":0.0013914663,"MEAN_MOTION_DOT":0.00219941,"MEAN_MOTION_DDOT":0},{"OBJECT_NAME":"STARLINK-37132","OBJECT_ID":"2026-054B","EPOCH":"2026-04-16T06:00:02.000160","MEAN_MOTION":15.75312969,"ECCENTRICITY":0.00010545,"INCLINATION":53.1579,"RA_OF_ASC_NODE":124.5988,"ARG_OF_PERICENTER":79.8151,"MEAN_ANOMALY":233.1656,"EPHEMERIS_TYPE":0,"CLASSIFICATION_TYPE":"U","NORAD_CAT_ID":68233,"ELEMENT_SET_NO":999,"REV_AT_EPOCH":603,"BSTAR":-0.0010889011,"MEAN_MOTION_DOT":-0.00164874,"MEAN_MOTION_DDOT":0},{"OBJECT_NAME":"STARLINK-37101","OBJECT_ID":"2026-054C","EPOCH":"2026-04-16T05:39:55.539936","MEAN_MOTION":15.7524619,"ECCENTRICITY":0.00012092,"INCLINATION":53.1573,"RA_OF_ASC_NODE":125.1463,"ARG_OF_PERICENTER":68.4839,"MEAN_ANOMALY":291.631,"EPHEMERIS_TYPE":0,"CLASSIFICATION_TYPE":"U","NORAD_CAT_ID":68234,"ELEMENT_SET_NO":999,"REV_AT_EPOCH":470,"BSTAR":0.0010815569,"MEAN_MOTION_DOT":0.00168546,"MEAN_MOTION_DDOT":0},{"OBJECT_NAME":"STARLINK-36963","OBJECT_ID":"2026-054D","EPOCH":"2026-04-16T05:46:27.448608","MEAN_MOTION":15.75253411,"ECCENTRICITY":8.791e-5,"INCLINATION":53.1582,"RA_OF_ASC_NODE":125.1761,"ARG_OF_PERICENTER":140.7955,"MEAN_ANOMALY":219.3129,"EPHEMERIS_TYPE":0,"CLASSIFICATION_TYPE":"U","NORAD_CAT_ID":68235,"ELEMENT_SET_NO":999,"REV_AT_EPOCH":470,"BSTAR":0.001061502,"MEAN_MOTION_DOT":0.00165399,"MEAN_MOTION_DDOT":0},{"OBJECT_NAME":"STARLINK-37127","OBJECT_ID":"2026-054E","EPOCH":"2026-04-16T07:30:53.581824","MEAN_MOTION":15.75267123,"ECCENTRICITY":0.00026179,"INCLINATION":53.1592,"RA_OF_ASC_NODE":124.9209,"ARG_OF_PERICENTER":111.1696,"MEAN_ANOMALY":248.9604,"EPHEMERIS_TYPE":0,"CLASSIFICATION_TYPE":"U","NORAD_CAT_ID":68236,"ELEMENT_SET_NO":999,"REV_AT_EPOCH":471,"BSTAR":0.0013021184,"MEAN_MOTION_DOT":0.00204111,"MEAN_MOTION_DDOT":0},{"OBJECT_NAME":"STARLINK-37095","OBJECT_ID":"2026-054F","EPOCH":"2026-04-16T05:52:59.781504","MEAN_MOTION":15.75355705,"ECCENTRICITY":6.807e-5,"INCLINATION":53.1591,"RA_OF_ASC_NODE":125.2056,"ARG_OF_PERICENTER":82.9755,"MEAN_ANOMALY":277.1342,"EPHEMERIS_TYPE":0,"CLASSIFICATION_TYPE":"U","NORAD_CAT_ID":68237,"ELEMENT_SET_NO":999,"REV_AT_EPOCH":470,"BSTAR":0.0010291623,"MEAN_MOTION_DOT":0.00160974,"MEAN_MOTION_DDOT":0},{"OBJECT_NAME":"STARLINK-37097","OBJECT_ID":"2026-054G","EPOCH":"2026-04-16T06:31:35.835456","MEAN_MOTION":15.75273083,"ECCENTRICITY":7.23e-5,"INCLINATION":53.158,"RA_OF_ASC_NODE":124.6472,"ARG_OF_PERICENTER":65.7218,"MEAN_ANOMALY":294.3877,"EPHEMERIS_TYPE":0,"CLASSIFICATION_TYPE":"U","NORAD_CAT_ID":68238,"ELEMENT_SET_NO":999,"REV_AT_EPOCH":471,"BSTAR":0.0014088351,"MEAN_MOTION_DOT":0.00221395,"MEAN_MOTION_DDOT":0},{"OBJECT_NAME":"STARLINK-37096","OBJECT_ID":"2026-054H","EPOCH":"2026-04-16T06:44:40.223040","MEAN_MOTION":15.75358447,"ECCENTRICITY":7.437e-5,"INCLINATION":53.1589,"RA_OF_ASC_NODE":124.7072,"ARG_OF_PERICENTER":57.4237,"MEAN_ANOMALY":302.6855,"EPHEMERIS_TYPE":0,"CLASSIFICATION_TYPE":"U","NORAD_CAT_ID":68239,"ELEMENT_SET_NO":999,"REV_AT_EPOCH":471,"BSTAR":0.00097051174,"MEAN_MOTION_DOT":0.00151612,"MEAN_MOTION_DDOT":0},{"OBJECT_NAME":"STARLINK-37092","OBJECT_ID":"2026-054J","EPOCH":"2026-04-16T00:52:17.644512","MEAN_MOTION":15.75374392,"ECCENTRICITY":0.00028336,"INCLINATION":53.155,"RA_OF_ASC_NODE":126.0276,"ARG_OF_PERICENTER":293.8277,"MEAN_ANOMALY":66.2446,"EPHEMERIS_TYPE":0,"CLASSIFICATION_TYPE":"U","NORAD_CAT_ID":68240,"ELEMENT_SET_NO":999,"REV_AT_EPOCH":467,"BSTAR":0.0012506158,"MEAN_MOTION_DOT":0.00196767,"MEAN_MOTION_DDOT":0},{"OBJECT_NAME":"STARLINK-37094","OBJECT_ID":"2026-054K","EPOCH":"2026-04-16T06:00:02.000160","MEAN_MOTION":15.63711442,"ECCENTRICITY":0.00013715,"INCLINATION":53.1595,"RA_OF_ASC_NODE":124.7089,"ARG_OF_PERICENTER":87.2045,"MEAN_ANOMALY":170.6275,"EPHEMERIS_TYPE":0,"CLASSIFICATION_TYPE":"U","NORAD_CAT_ID":68241,"ELEMENT_SET_NO":999,"REV_AT_EPOCH":594,"BSTAR":-0.022787504,"MEAN_MOTION_DOT":-0.01916415,"MEAN_MOTION_DDOT":0},{"OBJECT_NAME":"STARLINK-36356","OBJECT_ID":"2026-054L","EPOCH":"2026-04-16T06:00:02.000160","MEAN_MOTION":15.67283086,"ECCENTRICITY":0.00011317,"INCLINATION":53.1591,"RA_OF_ASC_NODE":125.074,"ARG_OF_PERICENTER":66.1906,"MEAN_ANOMALY":13.613,"EPHEMERIS_TYPE":0,"CLASSIFICATION_TYPE":"U","NORAD_CAT_ID":68242,"ELEMENT_SET_NO":999,"REV_AT_EPOCH":599,"BSTAR":-0.0197968,"MEAN_MOTION_DOT":-0.01922527,"MEAN_MOTION_DDOT":0},{"OBJECT_NAME":"STARLINK-36345","OBJECT_ID":"2026-054M","EPOCH":"2026-04-15T13:00:59.571360","MEAN_MOTION":15.75328014,"ECCENTRICITY":0.0001417,"INCLINATION":53.1583,"RA_OF_ASC_NODE":128.6419,"ARG_OF_PERICENTER":50.0308,"MEAN_ANOMALY":310.0837,"EPHEMERIS_TYPE":0,"CLASSIFICATION_TYPE":"U","NORAD_CAT_ID":68243,"ELEMENT_SET_NO":999,"REV_AT_EPOCH":459,"BSTAR":0.0012637167,"MEAN_MOTION_DOT":0.00198454,"MEAN_MOTION_DDOT":0},{"OBJECT_NAME":"STARLINK-36310","OBJECT_ID":"2026-054N","EPOCH":"2026-04-16T06:00:02.000160","MEAN_MOTION":15.75312494,"ECCENTRICITY":0.00011084,"INCLINATION":53.1587,"RA_OF_ASC_NODE":124.4918,"ARG_OF_PERICENTER":90.5465,"MEAN_ANOMALY":273.9384,"EPHEMERIS_TYPE":0,"CLASSIFICATION_TYPE":"U","NORAD_CAT_ID":68244,"ELEMENT_SET_NO":999,"REV_AT_EPOCH":599,"BSTAR":-0.0011028684,"MEAN_MOTION_DOT":-0.00166938,"MEAN_MOTION_DDOT":0},{"OBJECT_NAME":"STARLINK-36247","OBJECT_ID":"2026-054P","EPOCH":"2026-04-15T08:45:55.382976","MEAN_MOTION":15.7523989,"ECCENTRICITY":0.00017313,"INCLINATION":53.1594,"RA_OF_ASC_NODE":128.9374,"ARG_OF_PERICENTER":48.0285,"MEAN_ANOMALY":312.0882,"EPHEMERIS_TYPE":0,"CLASSIFICATION_TYPE":"U","NORAD_CAT_ID":68245,"ELEMENT_SET_NO":999,"REV_AT_EPOCH":457,"BSTAR":0.001053501,"MEAN_MOTION_DOT":0.00164026,"MEAN_MOTION_DDOT":0},{"OBJECT_NAME":"STARLINK-37043","OBJECT_ID":"2026-054Q","EPOCH":"2026-04-16T01:43:58.375488","MEAN_MOTION":15.75269342,"ECCENTRICITY":5.779e-5,"INCLINATION":53.1575,"RA_OF_ASC_NODE":125.5286,"ARG_OF_PERICENTER":119.0967,"MEAN_ANOMALY":241.0112,"EPHEMERIS_TYPE":0,"CLASSIFICATION_TYPE":"U","NORAD_CAT_ID":68246,"ELEMENT_SET_NO":999,"REV_AT_EPOCH":468,"BSTAR":0.0013550026,"MEAN_MOTION_DOT":0.00212655,"MEAN_MOTION_DDOT":0},{"OBJECT_NAME":"STARLINK-37044","OBJECT_ID":"2026-054R","EPOCH":"2026-04-16T06:38:08.090592","MEAN_MOTION":15.75237244,"ECCENTRICITY":0.00010756,"INCLINATION":53.1584,"RA_OF_ASC_NODE":124.6767,"ARG_OF_PERICENTER":77.4473,"MEAN_ANOMALY":282.6667,"EPHEMERIS_TYPE":0,"CLASSIFICATION_TYPE":"U","NORAD_CAT_ID":68247,"ELEMENT_SET_NO":999,"REV_AT_EPOCH":471,"BSTAR":0.0014093178,"MEAN_MOTION_DOT":0.00221116,"MEAN_MOTION_DDOT":0},{"OBJECT_NAME":"STARLINK-36997","OBJECT_ID":"2026-054S","EPOCH":"2026-04-16T07:10:48.644832","MEAN_MOTION":15.75389643,"ECCENTRICITY":0.00024156,"INCLINATION":53.1582,"RA_OF_ASC_NODE":124.8262,"ARG_OF_PERICENTER":131.5885,"MEAN_ANOMALY":228.5343,"EPHEMERIS_TYPE":0,"CLASSIFICATION_TYPE":"U","NORAD_CAT_ID":68248,"ELEMENT_SET_NO":999,"REV_AT_EPOCH":471,"BSTAR":0.0014446759,"MEAN_MOTION_DOT":0.002284,"MEAN_MOTION_DDOT":0},{"OBJECT_NAME":"STARLINK-37141","OBJECT_ID":"2026-054T","EPOCH":"2026-04-16T06:51:12.290688","MEAN_MOTION":15.75261352,"ECCENTRICITY":9.005e-5,"INCLINATION":53.1566,"RA_OF_ASC_NODE":124.7372,"ARG_OF_PERICENTER":79.6211,"MEAN_ANOMALY":280.4911,"EPHEMERIS_TYPE":0,"CLASSIFICATION_TYPE":"U","NORAD_CAT_ID":68249,"ELEMENT_SET_NO":999,"REV_AT_EPOCH":471,"BSTAR":0.0006481239,"MEAN_MOTION_DOT":0.00099989,"MEAN_MOTION_DDOT":0},{"OBJECT_NAME":"STARLINK-37087","OBJECT_ID":"2026-054U","EPOCH":"2026-04-16T06:58:12.713952","MEAN_MOTION":15.75275857,"ECCENTRICITY":0.00011297,"INCLINATION":53.1557,"RA_OF_ASC_NODE":124.7667,"ARG_OF_PERICENTER":105.9622,"MEAN_ANOMALY":254.1523,"EPHEMERIS_TYPE":0,"CLASSIFICATION_TYPE":"U","NORAD_CAT_ID":68250,"ELEMENT_SET_NO":999,"REV_AT_EPOCH":471,"BSTAR":0.00094009532,"MEAN_MOTION_DOT":0.00146217,"MEAN_MOTION_DDOT":0},{"OBJECT_NAME":"STARLINK-36274","OBJECT_ID":"2026-054V","EPOCH":"2026-04-16T05:33:23.312448","MEAN_MOTION":15.75248811,"ECCENTRICITY":9.639e-5,"INCLINATION":53.1556,"RA_OF_ASC_NODE":125.1118,"ARG_OF_PERICENTER":51.4309,"MEAN_ANOMALY":308.6798,"EPHEMERIS_TYPE":0,"CLASSIFICATION_TYPE":"U","NORAD_CAT_ID":68251,"ELEMENT_SET_NO":999,"REV_AT_EPOCH":470,"BSTAR":0.0011354241,"MEAN_MOTION_DOT":0.00177176,"MEAN_MOTION_DDOT":0},{"OBJECT_NAME":"STARLINK-37085","OBJECT_ID":"2026-054W","EPOCH":"2026-04-16T00:00:02.000160","MEAN_MOTION":15.75212479,"ECCENTRICITY":0.00012071,"INCLINATION":53.1589,"RA_OF_ASC_NODE":125.6763,"ARG_OF_PERICENTER":99.5202,"MEAN_ANOMALY":314.0475,"EPHEMERIS_TYPE":0,"CLASSIFICATION_TYPE":"U","NORAD_CAT_ID":68252,"ELEMENT_SET_NO":999,"REV_AT_EPOCH":591,"BSTAR":0.0002301523,"MEAN_MOTION_DOT":0.00034744,"MEAN_MOTION_DDOT":0},{"OBJECT_NAME":"STARLINK-37086","OBJECT_ID":"2026-054X","EPOCH":"2026-04-16T06:00:02.000160","MEAN_MOTION":15.69602594,"ECCENTRICITY":8.604e-5,"INCLINATION":53.1594,"RA_OF_ASC_NODE":124.5152,"ARG_OF_PERICENTER":84.7679,"MEAN_ANOMALY":267.9168,"EPHEMERIS_TYPE":0,"CLASSIFICATION_TYPE":"U","NORAD_CAT_ID":68253,"ELEMENT_SET_NO":999,"REV_AT_EPOCH":595,"BSTAR":-0.018148509,"MEAN_MOTION_DOT":-0.01938147,"MEAN_MOTION_DDOT":0}]
